HYPERFIELD-1A           
1 60562U 24149CY  26068.76488211  .00008569  00000+0  30052-3 0  9998
2 60562  97.3842 149.5066 0003865 313.7844  46.3076 15.29681349 86836
STARLINK-36127          
1 66935U 25286L   26068.21430695 -.00002306  00000+0 -65778-4 0  9993
2 66935  53.1615   0.6854 0000961 109.5307 250.5798 15.30197410 15346
